1 08820U 76039A   03310.76742513 -.00000020  00000-0  10000-3 0  9925
2 08820 109.8272 230.4015 0044486 270.9215  88.6259  6.38664664386167
